{"type": "FeatureCollection", "features": [ {"type": "Feature", "properties": {"norad_id": 32289, "name": "YAOGAN-3", "group": "resource", "lat": 81.99101740286088, "lon": -67.14297354106569, "alt_km": 590.0789474028579, "timestamp": "2025-12-10T09:57:44.360903+00:00", "meta": {"OBJECT_NAME": "YAOGAN-3", "OBJECT_ID": "2007-055A", "EPOCH": "2025-12-09T20:40:19.149600", "MEAN_MOTION": 14.89832088, "ECCENTRICITY": 0.0001375, "INCLINATION": 97.8367, "RA_OF_ASC_NODE": 10.5117, "ARG_OF_PERICENTER": 72.4327, "MEAN_ANOMALY": 287.7041, "EPHEMERIS_TYPE": 0, "CLASSIFICATION_TYPE": "U", "NORAD_CAT_ID": 32289, "ELEMENT_SET_NO": 999, "REV_AT_EPOCH": 97766, "BSTAR": 0.00014269, "MEAN_MOTION_DOT": 1.315e-05, "MEAN_MOTION_DDOT": 0}, "tle": {"line1": "1 32289U 07055A   25343.86133275  .00001315  00000+0  14269-3 0  9997", "line2": "2 32289  97.8367  10.5117 0001375  72.4327 287.7041 14.89832088977667"}}, "geometry": {"type": "Point", "coordinates": [-67.14297354106569, 81.99101740286088]}}, {"type": "Feature", "properties": {"norad_id": 32376, "name": "COSMO-SKYMED 2", "group": "resource", "lat": 70.06255808439964, "lon": 143.3235670696455, "alt_km": 614.6709434000031, "timestamp": "2025-12-10T09:57:44.360914+00:00", "meta": {"OBJECT_NAME": "COSMO-SKYMED 2", "OBJECT_ID": "2007-059A", "EPOCH": "2025-12-09T19:03:29.453760", "MEAN_MOTION": 14.82161028, "ECCENTRICITY": 0.0001536, "INCLINATION": 97.8812, "RA_OF_ASC_NODE": 165.1622, "ARG_OF_PERICENTER": 85.6208, "MEAN_ANOMALY": 274.5181, "EPHEMERIS_TYPE": 0, "CLASSIFICATION_TYPE": "U", "NORAD_CAT_ID": 32376, "ELEMENT_SET_NO": 999, "REV_AT_EPOCH": 97394, "BSTAR": 0.00013537, "MEAN_MOTION_DOT": 1.026e-05, "MEAN_MOTION_DDOT": 0}, "tle": {"line1": "1 32376U 07059A   25343.79409090  .00001026  00000+0  13537-3 0  9997", "line2": "2 32376  97.8812 165.1622 0001536  85.6208 274.5181 14.82161028973948"}}, "geometry": {"type": "Point", "coordinates": [143.3235670696455, 70.06255808439964]}}, {"type": "Feature", "properties": {"norad_id": 32382, "name": "RADARSAT-2", "group": "resource", "lat": 79.21655091735859, "lon": -138.5272633753639, "alt_km": 783.6037578847554, "timestamp": "2025-12-10T09:57:44.360924+00:00", "meta": {"OBJECT_NAME": "RADARSAT-2", "OBJECT_ID": "2007-061A", "EPOCH": "2025-12-09T23:26:12.483168", "MEAN_MOTION": 14.29981197, "ECCENTRICITY": 0.0001136, "INCLINATION": 98.5796, "RA_OF_ASC_NODE": 348.6068, "ARG_OF_PERICENTER": 94.4252, "MEAN_ANOMALY": 265.706, "EPHEMERIS_TYPE": 0, "CLASSIFICATION_TYPE": "U", "NORAD_CAT_ID": 32382, "ELEMENT_SET_NO": 999, "REV_AT_EPOCH": 93891, "BSTAR": 6.0045e-05, "MEAN_MOTION_DOT": 1.11e-06, "MEAN_MOTION_DDOT": 0}, "tle": {"line1": "1 32382U 07061A   25343.97653337  .00000111  00000+0  60045-4 0  9993", "line2": "2 32382  98.5796 348.6068 0001136  94.4252 265.7060 14.29981197938913"}}, "geometry": {"type": "Point", "coordinates": [-138.5272633753639, 79.21655091735859]}}, {"type": "Feature", "properties": {"norad_id": 32783, "name": "CARTOSAT-2A", "group": "resource", "lat": -57.475831474351466, "lon": -158.09093809660826, "alt_km": 645.6570320245792, "timestamp": "2025-12-10T09:57:44.360935+00:00", "meta": {"OBJECT_NAME": "CARTOSAT-2A", "OBJECT_ID": "2008-021A", "EPOCH": "2025-12-10T04:00:59.541984", "MEAN_MOTION": 14.78929166, "ECCENTRICITY": 0.0012109, "INCLINATION": 97.7929, "RA_OF_ASC_NODE": 34.0709, "ARG_OF_PERICENTER": 12.6418, "MEAN_ANOMALY": 347.5095, "EPHEMERIS_TYPE": 0, "CLASSIFICATION_TYPE": "U", "NORAD_CAT_ID": 32783, "ELEMENT_SET_NO": 999, "REV_AT_EPOCH": 95086, "BSTAR": 0.00018438, "MEAN_MOTION_DOT": 1.311e-05, "MEAN_MOTION_DDOT": 0}, "tle": {"line1": "1 32783U 08021A   25344.16735581  .00001311  00000+0  18438-3 0  9990", "line2": "2 32783  97.7929  34.0709 0012109  12.6418 347.5095 14.78929166950860"}}, "geometry": {"type": "Point", "coordinates": [-158.09093809660826, -57.475831474351466]}}, {"type": "Feature", "properties": {"norad_id": 33320, "name": "HUANJING 1A (HJ-1A)", "group": "resource", "lat": 65.43785769724497, "lon": -44.301733309505316, "alt_km": 599.3577002621241, "timestamp": "2025-12-10T09:57:44.360946+00:00", "meta": {"OBJECT_NAME": "HUANJING 1A (HJ-1A)", "OBJECT_ID": "2008-041A", "EPOCH": "2025-12-10T04:48:27.363744", "MEAN_MOTION": 14.83382341, "ECCENTRICITY": 0.0020373, "INCLINATION": 97.6542, "RA_OF_ASC_NODE": 332.6049, "ARG_OF_PERICENTER": 42.4277, "MEAN_ANOMALY": 317.8508, "EPHEMERIS_TYPE": 0, "CLASSIFICATION_TYPE": "U", "NORAD_CAT_ID": 33320, "ELEMENT_SET_NO": 999, "REV_AT_EPOCH": 93038, "BSTAR": 0.00035723, "MEAN_MOTION_DOT": 2.889e-05, "MEAN_MOTION_DDOT": 0}, "tle": {"line1": "1 33320U 08041A   25344.20031671  .00002889  00000+0  35723-3 0  9991", "line2": "2 33320  97.6542 332.6049 0020373  42.4277 317.8508 14.83382341930386"}}, "geometry": {"type": "Point", "coordinates": [-44.301733309505316, 65.43785769724497]}}, {"type": "Feature", "properties": {"norad_id": 33321, "name": "HUANJING 1B (HJ-1B)", "group": "resource", "lat": -66.61426955612774, "lon": -5.403097817285986, "alt_km": 651.0746603441194, "timestamp": "2025-12-10T09:57:44.360963+00:00", "meta": {"OBJECT_NAME": "HUANJING 1B (HJ-1B)", "OBJECT_ID": "2008-041B", "EPOCH": "2025-12-10T03:47:26.275200", "MEAN_MOTION": 14.82811819, "ECCENTRICITY": 0.003829, "INCLINATION": 97.64, "RA_OF_ASC_NODE": 336.2679, "ARG_OF_PERICENTER": 83.8034, "MEAN_ANOMALY": 276.754, "EPHEMERIS_TYPE": 0, "CLASSIFICATION_TYPE": "U", "NORAD_CAT_ID": 33321, "ELEMENT_SET_NO": 999, "REV_AT_EPOCH": 93039, "BSTAR": 0.0002809, "MEAN_MOTION_DOT": 2.25e-05, "MEAN_MOTION_DDOT": 0}, "tle": {"line1": "1 33321U 08041B   25344.15794300  .00002250  00000+0  28090-3 0  9992", "line2": "2 33321  97.6400 336.2679 0038290  83.8034 276.7540 14.82811819930392"}}, "geometry": {"type": "Point", "coordinates": [-5.403097817285986, -66.61426955612774]}}, {"type": "Feature", "properties": {"norad_id": 33331, "name": "GEOEYE 1", "group": "resource", "lat": 67.53865701480653, "lon": 35.50779274572682, "alt_km": 672.6422820253138, "timestamp": "2025-12-10T09:57:44.360985+00:00", "meta": {"OBJECT_NAME": "GEOEYE 1", "OBJECT_ID": "2008-042A", "EPOCH": "2025-12-10T04:43:48.742752", "MEAN_MOTION": 14.64806955, "ECCENTRICITY": 0.0002756, "INCLINATION": 98.1255, "RA_OF_ASC_NODE": 55.5096, "ARG_OF_PERICENTER": 287.8584, "MEAN_ANOMALY": 72.2318, "EPHEMERIS_TYPE": 0, "CLASSIFICATION_TYPE": "U", "NORAD_CAT_ID": 33331, "ELEMENT_SET_NO": 999, "REV_AT_EPOCH": 92248, "BSTAR": 0.00018726, "MEAN_MOTION_DOT": 9.51e-06, "MEAN_MOTION_DDOT": 0}, "tle": {"line1": "1 33331U 08042A   25344.19709193  .00000951  00000+0  18726-3 0  9995", "line2": "2 33331  98.1255  55.5096 0002756 287.8584  72.2318 14.64806955922483"}}, "geometry": {"type": "Point", "coordinates": [35.50779274572682, 67.53865701480653]}}, {"type": "Feature", "properties": {"norad_id": 33396, "name": "THEOS", "group": "resource", "lat": -59.53806434390399, "lon": 57.458835337122814, "alt_km": 832.8574239823874, "timestamp": "2025-12-10T09:57:44.360997+00:00", "meta": {"OBJECT_NAME": "THEOS", "OBJECT_ID": "2008-049A", "EPOCH": "2025-12-10T03:29:01.062816", "MEAN_MOTION": 14.20096366, "ECCENTRICITY": 0.0001108, "INCLINATION": 98.5866, "RA_OF_ASC_NODE": 42.311, "ARG_OF_PERICENTER": 96.1594, "MEAN_ANOMALY": 263.9709, "EPHEMERIS_TYPE": 0, "CLASSIFICATION_TYPE": "U", "NORAD_CAT_ID": 33396, "ELEMENT_SET_NO": 999, "REV_AT_EPOCH": 89113, "BSTAR": 0.00016507, "MEAN_MOTION_DOT": 3.09e-06, "MEAN_MOTION_DDOT": 0}, "tle": {"line1": "1 33396U 08049A   25344.14515119  .00000309  00000+0  16507-3 0  9993", "line2": "2 33396  98.5866  42.3110 0001108  96.1594 263.9709 14.20096366891138"}}, "geometry": {"type": "Point", "coordinates": [57.458835337122814, -59.53806434390399]}}, {"type": "Feature", "properties": {"norad_id": 33412, "name": "COSMO-SKYMED 3", "group": "resource", "lat": 33.938707681782546, "lon": -170.5571469105955, "alt_km": 557.6731496779348, "timestamp": "2025-12-10T09:57:44.361008+00:00", "meta": {"OBJECT_NAME": "COSMO-SKYMED 3", "OBJECT_ID": "2008-054A", "EPOCH": "2025-12-10T03:25:42.847392", "MEAN_MOTION": 15.05312806, "ECCENTRICITY": 0.0015821, "INCLINATION": 97.8458, "RA_OF_ASC_NODE": 194.4906, "ARG_OF_PERICENTER": 182.869, "MEAN_ANOMALY": 177.2447, "EPHEMERIS_TYPE": 0, "CLASSIFICATION_TYPE": "U", "NORAD_CAT_ID": 33412, "ELEMENT_SET_NO": 999, "REV_AT_EPOCH": 92848, "BSTAR": 0.00049779, "MEAN_MOTION_DOT": 7.08e-05, "MEAN_MOTION_DDOT": 0}, "tle": {"line1": "1 33412U 08054A   25344.14285703  .00007080  00000+0  49779-3 0  9991", "line2": "2 33412  97.8458 194.4906 0015821 182.8690 177.2447 15.05312806928484"}}, "geometry": {"type": "Point", "coordinates": [-170.5571469105955, 33.938707681782546]}}, {"type": "Feature", "properties": {"norad_id": 33446, "name": "YAOGAN-4", "group": "resource", "lat": -24.897553424397202, "lon": 90.8334200699017, "alt_km": 632.2395792358775, "timestamp": "2025-12-10T09:57:44.361019+00:00", "meta": {"OBJECT_NAME": "YAOGAN-4", "OBJECT_ID": "2008-061A", "EPOCH": "2025-12-09T18:27:44.192736", "MEAN_MOTION": 14.82669066, "ECCENTRICITY": 0.0013834, "INCLINATION": 97.918, "RA_OF_ASC_NODE": 273.8977, "ARG_OF_PERICENTER": 333.4194, "MEAN_ANOMALY": 26.6309, "EPHEMERIS_TYPE": 0, "CLASSIFICATION_TYPE": "U", "NORAD_CAT_ID": 33446, "ELEMENT_SET_NO": 999, "REV_AT_EPOCH": 91759, "BSTAR": 0.000361, "MEAN_MOTION_DOT": 2.862e-05, "MEAN_MOTION_DDOT": 0}, "tle": {"line1": "1 33446U 08061A   25343.76926149  .00002862  00000+0  36100-3 0  9996", "line2": "2 33446  97.9180 273.8977 0013834 333.4194  26.6309 14.82669066917590"}}, "geometry": {"type": "Point", "coordinates": [90.8334200699017, -24.897553424397202]}}]}